STARLINK-1800           
1 46700U 20073AG  20308.50001157 -.01096701  00000-0 -10111-1 0  9992
2 46700  53.0514  30.0842 0001291  51.5576 215.3389 15.69724784  3025
STARLINK-1801           
1 46701U 20073AH  20308.50001157 -.01096653  00000-0 -10145-1 0  9996
2 46701  53.0496  30.0602 0001261  53.7074 223.3640 15.69643718  3029
STARLINK-1802           
1 46702U 20073AJ  20308.50001157 -.01097558  00000-0 -10083-1 0  9993
2 46702  53.0509  30.0361 0001415  40.8684 248.5775 15.69810542  3021
STARLINK-1803           
1 46703U 20073AK  20308.50001157 -.01096755  00000-0 -10053-1 0  9999
2 46703  53.0510  30.0594 0001344  46.2874 231.6930 15.69862770  3020
STARLINK-1804           
1 46704U 20073AL  20308.50001157 -.01096756  00000-0 -10082-1 0  9993
2 46704  53.0471  30.0402 0001136  63.8544 224.5387 15.69796001  3023
STARLINK-1805           
1 46705U 20073AM  20308.41667824 -.01094992  00000-0 -10116-1 0  9991
2 46705  53.0517  30.4966 0001293  64.6018  92.6932 15.69671364  3016
STARLINK-1807           
1 46706U 20073AN  20308.50001157 -.01096802  00000-0 -10105-1 0  9993
2 46706  53.0496  30.0479 0001130  65.3247 220.6044 15.69742878  3027
STARLINK-1808           
1 46707U 20073AP  20308.50001157 -.01097593  00000-0 -99773-2 0  9991
2 46707  53.0471  30.0279 0001162  58.4291 235.6877 15.70064736  3028
STARLINK-1809           
1 46708U 20073AQ  20308.41667824 -.01096054  00000-0 -99518-2 0  9999
2 46708  53.0497  30.4401 0001212  83.2113 100.9034 15.70087909  3018
STARLINK-1810           
1 46709U 20073AR  20308.50001157 -.01096911  00000-0 -10151-1 0  9998
2 46709  53.0509  30.0636 0001428  41.3696 234.6219 15.69634274  3021
STARLINK-1813           
1 46711U 20073AT  20308.50001157 -.01096964  00000-0 -10096-1 0  9997
2 46711  53.0510  30.0410 0001219  55.7304 231.5343 15.69767259  3023
STARLINK-1814           
1 46712U 20073AU  20308.50001157 -.01097143  00000-0 -10019-1 0  9993
2 46712  53.0499  30.0495 0001129  65.1200 220.7126 15.69954912  3026
STARLINK-1815           
1 46713U 20073AV  20308.50001157 -.01096601  00000-0 -10144-1 0  9991
2 46713  53.0492  30.0607 0001191  60.6217 219.2181 15.69645447  3026
STARLINK-1817           
1 46715U 20073AX  20308.41667824 -.01095464  00000-0 -10043-1 0  9996
2 46715  53.0512  30.4681 0001274  68.3963 102.2318 15.69855802  3012
STARLINK-1818           
1 46716U 20073AY  20308.41667824 -.01095518  00000-0 -10039-1 0  9992
2 46716  53.0518  30.5062 0001239  72.5787  80.6145 15.69866968  3006
