[{"OBJECT_NAME":"STARLINK-1800","OBJECT_ID":"2020-073AG","EPOCH":"2020-11-03T12:00:00.999648","MEAN_MOTION":15.69724784,"ECCENTRICITY":0.0001291,"INCLINATION":53.0514,"RA_OF_ASC_NODE":30.0842,"ARG_OF_PERICENTER":51.5576,"MEAN_ANOMALY":215.3389,"EPHEMERIS_TYPE":0,"CLASSIFICATION_TYPE":"U","NORAD_CAT_ID":46700,"ELEMENT_SET_NO":999,"REV_AT_EPOCH":302,"BSTAR":-0.010111,"MEAN_MOTION_DOT":-0.01096701,"MEAN_MOTION_DDOT":0},{"OBJECT_NAME":"STARLINK-1801","OBJECT_ID":"2020-073AH","EPOCH":"2020-11-03T12:00:00.999648","MEAN_MOTION":15.69643718,"ECCENTRICITY":0.0001261,"INCLINATION":53.0496,"RA_OF_ASC_NODE":30.0602,"ARG_OF_PERICENTER":53.7074,"MEAN_ANOMALY":223.364,"EPHEMERIS_TYPE":0,"CLASSIFICATION_TYPE":"U","NORAD_CAT_ID":46701,"ELEMENT_SET_NO":999,"REV_AT_EPOCH":302,"BSTAR":-0.010145,"MEAN_MOTION_DOT":-0.01096653,"MEAN_MOTION_DDOT":0},{"OBJECT_NAME":"STARLINK-1802","OBJECT_ID":"2020-073AJ","EPOCH":"2020-11-03T12:00:00.999648","MEAN_MOTION":15.69810542,"ECCENTRICITY":0.0001415,"INCLINATION":53.0509,"RA_OF_ASC_NODE":30.0361,"ARG_OF_PERICENTER":40.8684,"MEAN_ANOMALY":248.5775,"EPHEMERIS_TYPE":0,"CLASSIFICATION_TYPE":"U","NORAD_CAT_ID":46702,"ELEMENT_SET_NO":999,"REV_AT_EPOCH":302,"BSTAR":-0.010083,"MEAN_MOTION_DOT":-0.01097558,"MEAN_MOTION_DDOT":0},{"OBJECT_NAME":"STARLINK-1803","OBJECT_ID":"2020-073AK","EPOCH":"2020-11-03T12:00:00.999648","MEAN_MOTION":15.6986277,"ECCENTRICITY":0.0001344,"INCLINATION":53.051,"RA_OF_ASC_NODE":30.0594,"ARG_OF_PERICENTER":46.2874,"MEAN_ANOMALY":231.693,"EPHEMERIS_TYPE":0,"CLASSIFICATION_TYPE":"U","NORAD_CAT_ID":46703,"ELEMENT_SET_NO":999,"REV_AT_EPOCH":302,"BSTAR":-0.010053,"MEAN_MOTION_DOT":-0.01096755,"MEAN_MOTION_DDOT":0},{"OBJECT_NAME":"STARLINK-1804","OBJECT_ID":"2020-073AL","EPOCH":"2020-11-03T12:00:00.999648","MEAN_MOTION":15.69796001,"ECCENTRICITY":0.0001136,"INCLINATION":53.0471,"RA_OF_ASC_NODE":30.0402,"ARG_OF_PERICENTER":63.8544,"MEAN_ANOMALY":224.5387,"EPHEMERIS_TYPE":0,"CLASSIFICATION_TYPE":"U","NORAD_CAT_ID":46704,"ELEMENT_SET_NO":999,"REV_AT_EPOCH":302,"BSTAR":-0.010082,"MEAN_MOTION_DOT":-0.01096756,"MEAN_MOTION_DDOT":0},{"OBJECT_NAME":"STARLINK-1805","OBJECT_ID":"2020-073AM","EPOCH":"2020-11-03T10:00:00.999936","MEAN_MOTION":15.69671364,"ECCENTRICITY":0.0001293,"INCLINATION":53.0517,"RA_OF_ASC_NODE":30.4966,"ARG_OF_PERICENTER":64.6018,"MEAN_ANOMALY":92.6932,"EPHEMERIS_TYPE":0,"CLASSIFICATION_TYPE":"U","NORAD_CAT_ID":46705,"ELEMENT_SET_NO":999,"REV_AT_EPOCH":301,"BSTAR":-0.010116,"MEAN_MOTION_DOT":-0.01094992,"MEAN_MOTION_DDOT":0},{"OBJECT_NAME":"STARLINK-1807","OBJECT_ID":"2020-073AN","EPOCH":"2020-11-03T12:00:00.999648","MEAN_MOTION":15.69742878,"ECCENTRICITY":0.000113,"INCLINATION":53.0496,"RA_OF_ASC_NODE":30.0479,"ARG_OF_PERICENTER":65.3247,"MEAN_ANOMALY":220.6044,"EPHEMERIS_TYPE":0,"CLASSIFICATION_TYPE":"U","NORAD_CAT_ID":46706,"ELEMENT_SET_NO":999,"REV_AT_EPOCH":302,"BSTAR":-0.010105,"MEAN_MOTION_DOT":-0.01096802,"MEAN_MOTION_DDOT":0},{"OBJECT_NAME":"STARLINK-1808","OBJECT_ID":"2020-073AP","EPOCH":"2020-11-03T12:00:00.999648","MEAN_MOTION":15.70064736,"ECCENTRICITY":0.0001162,"INCLINATION":53.0471,"RA_OF_ASC_NODE":30.0279,"ARG_OF_PERICENTER":58.4291,"MEAN_ANOMALY":235.6877,"EPHEMERIS_TYPE":0,"CLASSIFICATION_TYPE":"U","NORAD_CAT_ID":46707,"ELEMENT_SET_NO":999,"REV_AT_EPOCH":302,"BSTAR":-0.0099773,"MEAN_MOTION_DOT":-0.01097593,"MEAN_MOTION_DDOT":0},{"OBJECT_NAME":"STARLINK-1809","OBJECT_ID":"2020-073AQ","EPOCH":"2020-11-03T10:00:00.999936","MEAN_MOTION":15.70087909,"ECCENTRICITY":0.0001212,"INCLINATION":53.0497,"RA_OF_ASC_NODE":30.4401,"ARG_OF_PERICENTER":83.2113,"MEAN_ANOMALY":100.9034,"EPHEMERIS_TYPE":0,"CLASSIFICATION_TYPE":"U","NORAD_CAT_ID":46708,"ELEMENT_SET_NO":999,"REV_AT_EPOCH":301,"BSTAR":-0.0099518,"MEAN_MOTION_DOT":-0.01096054,"MEAN_MOTION_DDOT":0},{"OBJECT_NAME":"STARLINK-1810","OBJECT_ID":"2020-073AR","EPOCH":"2020-11-03T12:00:00.999648","MEAN_MOTION":15.69634274,"ECCENTRICITY":0.0001428,"INCLINATION":53.0509,"RA_OF_ASC_NODE":30.0636,"ARG_OF_PERICENTER":41.3696,"MEAN_ANOMALY":234.6219,"EPHEMERIS_TYPE":0,"CLASSIFICATION_TYPE":"U","NORAD_CAT_ID":46709,"ELEMENT_SET_NO":999,"REV_AT_EPOCH":302,"BSTAR":-0.010151,"MEAN_MOTION_DOT":-0.01096911,"MEAN_MOTION_DDOT":0},{"OBJECT_NAME":"STARLINK-1813","OBJECT_ID":"2020-073AT","EPOCH":"2020-11-03T12:00:00.999648","MEAN_MOTION":15.69767259,"ECCENTRICITY":0.0001219,"INCLINATION":53.051,"RA_OF_ASC_NODE":30.041,"ARG_OF_PERICENTER":55.7304,"MEAN_ANOMALY":231.5343,"EPHEMERIS_TYPE":0,"CLASSIFICATION_TYPE":"U","NORAD_CAT_ID":46711,"ELEMENT_SET_NO":999,"REV_AT_EPOCH":302,"BSTAR":-0.010096,"MEAN_MOTION_DOT":-0.01096964,"MEAN_MOTION_DDOT":0},{"OBJECT_NAME":"STARLINK-1814","OBJECT_ID":"2020-073AU","EPOCH":"2020-11-03T12:00:00.999648","MEAN_MOTION":15.69954912,"ECCENTRICITY":0.0001129,"INCLINATION":53.0499,"RA_OF_ASC_NODE":30.0495,"ARG_OF_PERICENTER":65.12,"MEAN_ANOMALY":220.7126,"EPHEMERIS_TYPE":0,"CLASSIFICATION_TYPE":"U","NORAD_CAT_ID":46712,"ELEMENT_SET_NO":999,"REV_AT_EPOCH":302,"BSTAR":-0.010019,"MEAN_MOTION_DOT":-0.01097143,"MEAN_MOTION_DDOT":0},{"OBJECT_NAME":"STARLINK-1815","OBJECT_ID":"2020-073AV","EPOCH":"2020-11-03T12:00:00.999648","MEAN_MOTION":15.69645447,"ECCENTRICITY":0.0001191,"INCLINATION":53.0492,"RA_OF_ASC_NODE":30.0607,"ARG_OF_PERICENTER":60.6217,"MEAN_ANOMALY":219.2181,"EPHEMERIS_TYPE":0,"CLASSIFICATION_TYPE":"U","NORAD_CAT_ID":46713,"ELEMENT_SET_NO":999,"REV_AT_EPOCH":302,"BSTAR":-0.010144,"MEAN_MOTION_DOT":-0.01096601,"MEAN_MOTION_DDOT":0},{"OBJECT_NAME":"STARLINK-1817","OBJECT_ID":"2020-073AX","EPOCH":"2020-11-03T10:00:00.999936","MEAN_MOTION":15.69855802,"ECCENTRICITY":0.0001274,"INCLINATION":53.0512,"RA_OF_ASC_NODE":30.4681,"ARG_OF_PERICENTER":68.3963,"MEAN_ANOMALY":102.2318,"EPHEMERIS_TYPE":0,"CLASSIFICATION_TYPE":"U","NORAD_CAT_ID":46715,"ELEMENT_SET_NO":999,"REV_AT_EPOCH":301,"BSTAR":-0.010043,"MEAN_MOTION_DOT":-0.01095464,"MEAN_MOTION_DDOT":0},{"OBJECT_NAME":"STARLINK-1818","OBJECT_ID":"2020-073AY","EPOCH":"2020-11-03T10:00:00.999936","MEAN_MOTION":15.69866968,"ECCENTRICITY":0.0001239,"INCLINATION":53.0518,"RA_OF_ASC_NODE":30.5062,"ARG_OF_PERICENTER":72.5787,"MEAN_ANOMALY":80.6145,"EPHEMERIS_TYPE":0,"CLASSIFICATION_TYPE":"U","NORAD_CAT_ID":46716,"ELEMENT_SET_NO":999,"REV_AT_EPOCH":300,"BSTAR":-0.010039,"MEAN_MOTION_DOT":-0.01095518,"MEAN_MOTION_DDOT":0}]
